<?xml version="1.0" encoding="UTF-8"?>
<kml xmlns="http://www.opengis.net/kml/2.2" xmlns:gx="http://www.google.com/kml/ext/2.2" xmlns:kml="http://www.opengis.net/kml/2.2" xmlns:atom="http://www.w3.org/2005/Atom">
<Document id="14eHil9VDxO9YDi_6unH7kXsf5cxfBi__">
	<name>Torres</name>
	<gx:CascadingStyle kml:id="__managed_style_181B8D7C2F3E1BAEDE5C">
		<Style>
			<IconStyle>
				<Icon>
					<href>https://earth.google.com/earth/document/icon?color=d32f2f&amp;id=2000&amp;scale=4</href>
				</Icon>
				<hotSpot x="64" y="128" xunits="pixels" yunits="insetPixels"/>
			</IconStyle>
			<LabelStyle>
			</LabelStyle>
			<LineStyle>
				<color>ff2dc0fb</color>
				<width>3.2</width>
			</LineStyle>
			<PolyStyle>
				<color>40ffffff</color>
			</PolyStyle>
			<BalloonStyle>
			</BalloonStyle>
		</Style>
	</gx:CascadingStyle>
	<gx:CascadingStyle kml:id="__managed_style_17027312133E1BAEDE51">
		<Style>
			<IconStyle>
				<Icon>
					<href>https://earth.google.com/earth/document/icon?color=f57c00&amp;id=2000&amp;scale=4</href>
				</Icon>
				<hotSpot x="64" y="128" xunits="pixels" yunits="insetPixels"/>
			</IconStyle>
			<LabelStyle>
			</LabelStyle>
			<LineStyle>
				<color>ff2dc0fb</color>
				<width>3.2</width>
			</LineStyle>
			<PolyStyle>
				<color>40ffffff</color>
			</PolyStyle>
			<BalloonStyle>
			</BalloonStyle>
		</Style>
	</gx:CascadingStyle>
	<StyleMap id="__managed_style_01F313687E3E1BAEDE5C">
		<Pair>
			<key>normal</key>
			<styleUrl>#__managed_style_181B8D7C2F3E1BAEDE5C</styleUrl>
		</Pair>
		<Pair>
			<key>highlight</key>
			<styleUrl>#__managed_style_0624E662353E1BAEDE5E</styleUrl>
		</Pair>
	</StyleMap>
	<gx:CascadingStyle kml:id="__managed_style_2EA48E04503E1BAEDE51">
		<Style>
			<IconStyle>
				<scale>1.2</scale>
				<Icon>
					<href>https://earth.google.com/earth/document/icon?color=f57c00&amp;id=2000&amp;scale=4</href>
				</Icon>
				<hotSpot x="64" y="128" xunits="pixels" yunits="insetPixels"/>
			</IconStyle>
			<LabelStyle>
			</LabelStyle>
			<LineStyle>
				<color>ff2dc0fb</color>
				<width>4.8</width>
			</LineStyle>
			<PolyStyle>
				<color>40ffffff</color>
			</PolyStyle>
			<BalloonStyle>
			</BalloonStyle>
		</Style>
	</gx:CascadingStyle>
	<StyleMap id="__managed_style_0C52047D3B3E1BAEDE51">
		<Pair>
			<key>normal</key>
			<styleUrl>#__managed_style_17027312133E1BAEDE51</styleUrl>
		</Pair>
		<Pair>
			<key>highlight</key>
			<styleUrl>#__managed_style_2EA48E04503E1BAEDE51</styleUrl>
		</Pair>
	</StyleMap>
	<gx:CascadingStyle kml:id="__managed_style_0B4B60894B3E1BAEDE4F">
		<Style>
			<IconStyle>
				<scale>1.2</scale>
				<Icon>
					<href>https://earth.google.com/earth/document/icon?color=ef5350&amp;id=2000&amp;scale=4</href>
				</Icon>
				<hotSpot x="64" y="128" xunits="pixels" yunits="insetPixels"/>
			</IconStyle>
			<LabelStyle>
			</LabelStyle>
			<LineStyle>
				<color>ff2dc0fb</color>
				<width>4.8</width>
			</LineStyle>
			<PolyStyle>
				<color>40ffffff</color>
			</PolyStyle>
			<BalloonStyle>
			</BalloonStyle>
		</Style>
	</gx:CascadingStyle>
	<gx:CascadingStyle kml:id="__managed_style_12FF22AA653E1BAEDE4E">
		<Style>
			<IconStyle>
				<Icon>
					<href>https://earth.google.com/earth/document/icon?color=ef5350&amp;id=2000&amp;scale=4</href>
				</Icon>
				<hotSpot x="64" y="128" xunits="pixels" yunits="insetPixels"/>
			</IconStyle>
			<LabelStyle>
			</LabelStyle>
			<LineStyle>
				<color>ff2dc0fb</color>
				<width>3.2</width>
			</LineStyle>
			<PolyStyle>
				<color>40ffffff</color>
			</PolyStyle>
			<BalloonStyle>
			</BalloonStyle>
		</Style>
	</gx:CascadingStyle>
	<gx:CascadingStyle kml:id="__managed_style_0624E662353E1BAEDE5E">
		<Style>
			<IconStyle>
				<scale>1.2</scale>
				<Icon>
					<href>https://earth.google.com/earth/document/icon?color=d32f2f&amp;id=2000&amp;scale=4</href>
				</Icon>
				<hotSpot x="64" y="128" xunits="pixels" yunits="insetPixels"/>
			</IconStyle>
			<LabelStyle>
			</LabelStyle>
			<LineStyle>
				<color>ff2dc0fb</color>
				<width>4.8</width>
			</LineStyle>
			<PolyStyle>
				<color>40ffffff</color>
			</PolyStyle>
			<BalloonStyle>
			</BalloonStyle>
		</Style>
	</gx:CascadingStyle>
	<StyleMap id="__managed_style_02F6919EDE3E1BAEDE4E">
		<Pair>
			<key>normal</key>
			<styleUrl>#__managed_style_12FF22AA653E1BAEDE4E</styleUrl>
		</Pair>
		<Pair>
			<key>highlight</key>
			<styleUrl>#__managed_style_0B4B60894B3E1BAEDE4F</styleUrl>
		</Pair>
	</StyleMap>
	<Placemark id="055FB7FF4D3B4C2B6A1F">
		<name>Altamira</name>
		<LookAt>
			<longitude>-75.9425</longitude>
			<latitude>6.236666999999999</latitude>
			<altitude>0</altitude>
			<heading>0</heading>
			<tilt>0</tilt>
			<gx:fovy>35</gx:fovy>
			<range>1049.54414504783</range>
			<altitudeMode>relativeToGround</altitudeMode>
		</LookAt>
		<styleUrl>#__managed_style_02F6919EDE3E1BAEDE4E</styleUrl>
		<Point>
			<extrude>1</extrude>
			<coordinates>-75.9425,6.236666999999999,0</coordinates>
		</Point>
	</Placemark>
	<Placemark id="028B8E9DB93B4C2D5A61">
		<name>Arboleda</name>
		<LookAt>
			<longitude>-75.95425</longitude>
			<latitude>6.117722199999999</latitude>
			<altitude>0</altitude>
			<heading>0</heading>
			<tilt>0</tilt>
			<gx:fovy>35</gx:fovy>
			<range>1049.808123912888</range>
			<altitudeMode>relativeToGround</altitudeMode>
		</LookAt>
		<styleUrl>#__managed_style_02F6919EDE3E1BAEDE4E</styleUrl>
		<Point>
			<extrude>1</extrude>
			<coordinates>-75.95425,6.1177222,0</coordinates>
		</Point>
	</Placemark>
	<Placemark id="0BD7EA3E2D3B4C2DF2AF">
		<name>Morro Plancho</name>
		<LookAt>
			<longitude>-75.9708333</longitude>
			<latitude>6.1825</latitude>
			<altitude>0</altitude>
			<heading>0</heading>
			<tilt>0</tilt>
			<gx:fovy>35</gx:fovy>
			<range>1049.664986306211</range>
			<altitudeMode>relativeToGround</altitudeMode>
		</LookAt>
		<styleUrl>#__managed_style_02F6919EDE3E1BAEDE4E</styleUrl>
		<Point>
			<extrude>1</extrude>
			<coordinates>-75.97048728111896,6.181336022385648,0</coordinates>
		</Point>
	</Placemark>
	<Placemark id="0F430B78173B4C3252C8">
		<name>El Filo</name>
		<LookAt>
			<longitude>-75.9347222</longitude>
			<latitude>6.266388900000001</latitude>
			<altitude>0</altitude>
			<heading>0</heading>
			<tilt>0</tilt>
			<gx:fovy>35</gx:fovy>
			<range>1049.477393426527</range>
			<altitudeMode>relativeToGround</altitudeMode>
		</LookAt>
		<styleUrl>#__managed_style_02F6919EDE3E1BAEDE4E</styleUrl>
		<Point>
			<extrude>1</extrude>
			<coordinates>-75.93461568595336,6.266272711112428,0</coordinates>
		</Point>
	</Placemark>
	<Placemark id="0F9B93E6EA3B4C33773C">
		<name>Vendigujal</name>
		<LookAt>
			<longitude>-75.91666669999999</longitude>
			<latitude>6.2394444</latitude>
			<altitude>0</altitude>
			<heading>0</heading>
			<tilt>0</tilt>
			<gx:fovy>35</gx:fovy>
			<range>1049.537920714328</range>
			<altitudeMode>relativeToGround</altitudeMode>
		</LookAt>
		<styleUrl>#__managed_style_02F6919EDE3E1BAEDE4E</styleUrl>
		<Point>
			<extrude>1</extrude>
			<coordinates>-75.91666669999999,6.2394444,0</coordinates>
		</Point>
	</Placemark>
	<Placemark id="07984507EE3B4C34294B">
		<name>Betulia</name>
		<LookAt>
			<longitude>-75.98361109999999</longitude>
			<latitude>6.1097222</latitude>
			<altitude>0</altitude>
			<heading>0</heading>
			<tilt>0</tilt>
			<gx:fovy>35</gx:fovy>
			<range>1049.825697340797</range>
			<altitudeMode>relativeToGround</altitudeMode>
		</LookAt>
		<styleUrl>#__managed_style_02F6919EDE3E1BAEDE4E</styleUrl>
		<Point>
			<extrude>1</extrude>
			<coordinates>-75.98383464689444,6.109600165834363,0</coordinates>
		</Point>
	</Placemark>
	<Placemark id="0505840C263B4C37EC8F">
		<name>El Seis</name>
		<LookAt>
			<longitude>-75.9991667</longitude>
			<latitude>6.1363889</latitude>
			<altitude>0</altitude>
			<heading>0</heading>
			<tilt>0</tilt>
			<gx:fovy>35</gx:fovy>
			<range>1049.767030307331</range>
			<altitudeMode>relativeToGround</altitudeMode>
		</LookAt>
		<styleUrl>#__managed_style_02F6919EDE3E1BAEDE4E</styleUrl>
		<Point>
			<extrude>1</extrude>
			<coordinates>-75.9991667,6.1363889,0</coordinates>
		</Point>
	</Placemark>
	<Placemark id="0AC1AFDEBB3B4C38840F">
		<name>Cienaga</name>
		<LookAt>
			<longitude>-75.9858333</longitude>
			<latitude>6.233611099999999</latitude>
			<altitude>0</altitude>
			<heading>0</heading>
			<tilt>0</tilt>
			<gx:fovy>35</gx:fovy>
			<range>1049.550990336606</range>
			<altitudeMode>relativeToGround</altitudeMode>
		</LookAt>
		<styleUrl>#__managed_style_02F6919EDE3E1BAEDE4E</styleUrl>
		<Point>
			<extrude>1</extrude>
			<coordinates>-75.9858333,6.233611100000001,0</coordinates>
		</Point>
	</Placemark>
	<Placemark id="0821240AA63B4C38F89C">
		<name>Aguacatera</name>
		<LookAt>
			<longitude>-75.9594444</longitude>
			<latitude>6.222499999999999</latitude>
			<altitude>0</altitude>
			<heading>0</heading>
			<tilt>0</tilt>
			<gx:fovy>35</gx:fovy>
			<range>1049.575851372618</range>
			<altitudeMode>relativeToGround</altitudeMode>
		</LookAt>
		<styleUrl>#__managed_style_02F6919EDE3E1BAEDE4E</styleUrl>
		<Point>
			<extrude>1</extrude>
			<coordinates>-75.9594444,6.2225,0</coordinates>
		</Point>
	</Placemark>
	<Placemark id="04488B47543B4C3AA441">
		<name>PTP Santa Rita</name>
		<LookAt>
			<longitude>-75.93663889999999</longitude>
			<latitude>6.1328611</latitude>
			<altitude>0</altitude>
			<heading>0</heading>
			<tilt>0</tilt>
			<gx:fovy>35</gx:fovy>
			<range>1049.77480607901</range>
			<altitudeMode>relativeToGround</altitudeMode>
		</LookAt>
		<styleUrl>#__managed_style_02F6919EDE3E1BAEDE4E</styleUrl>
		<Point>
			<extrude>1</extrude>
			<coordinates>-75.93663889999999,6.1328611,0</coordinates>
		</Point>
	</Placemark>
	<Placemark id="02280C0EAE3B4C5A5B88">
		<name>PTP Piñonal</name>
		<LookAt>
			<longitude>-75.9882222</longitude>
			<latitude>6.191999999999999</latitude>
			<altitude>0</altitude>
			<heading>0</heading>
			<tilt>0</tilt>
			<gx:fovy>35</gx:fovy>
			<range>1049.643868475335</range>
			<altitudeMode>relativeToGround</altitudeMode>
		</LookAt>
		<styleUrl>#__managed_style_02F6919EDE3E1BAEDE4E</styleUrl>
		<Point>
			<extrude>1</extrude>
			<coordinates>-75.9882222,6.191999999999998,0</coordinates>
		</Point>
	</Placemark>
	<Placemark id="070A2D30D43B4C5B065F">
		<name>PTP Guadual</name>
		<LookAt>
			<longitude>-75.97563889999999</longitude>
			<latitude>6.178722200000001</latitude>
			<altitude>0</altitude>
			<heading>0</heading>
			<tilt>0</tilt>
			<gx:fovy>35</gx:fovy>
			<range>1049.673375136186</range>
			<altitudeMode>relativeToGround</altitudeMode>
		</LookAt>
		<styleUrl>#__managed_style_02F6919EDE3E1BAEDE4E</styleUrl>
		<Point>
			<extrude>1</extrude>
			<coordinates>-75.97563889999999,6.1787222,0</coordinates>
		</Point>
	</Placemark>
	<Placemark id="0DBC7CA7B73B4C5B749E">
		<name>PTP Guamalita</name>
		<LookAt>
			<longitude>-75.9811667</longitude>
			<latitude>6.242138899999999</latitude>
			<altitude>0</altitude>
			<heading>0</heading>
			<tilt>0</tilt>
			<gx:fovy>35</gx:fovy>
			<range>1049.531879533854</range>
			<altitudeMode>relativeToGround</altitudeMode>
		</LookAt>
		<styleUrl>#__managed_style_02F6919EDE3E1BAEDE4E</styleUrl>
		<Point>
			<extrude>1</extrude>
			<coordinates>-75.9811667,6.2421389,0</coordinates>
		</Point>
	</Placemark>
	<Placemark id="06C3A19ADE3B4C5E82C4">
		<name>Cejita</name>
		<LookAt>
			<longitude>-75.90942</longitude>
			<latitude>6.324049</latitude>
			<altitude>0</altitude>
			<heading>0</heading>
			<tilt>0</tilt>
			<gx:fovy>35</gx:fovy>
			<range>1049.346997078836</range>
			<altitudeMode>relativeToGround</altitudeMode>
		</LookAt>
		<styleUrl>#__managed_style_02F6919EDE3E1BAEDE4E</styleUrl>
		<Point>
			<extrude>1</extrude>
			<coordinates>-75.90952755738003,6.32413323786516,0</coordinates>
		</Point>
	</Placemark>
	<Placemark id="01F4BB39103B4C5F9E50">
		<name>Guintar</name>
		<LookAt>
			<longitude>-75.94561700000001</longitude>
			<latitude>6.292618</latitude>
			<altitude>0</altitude>
			<heading>0</heading>
			<tilt>0</tilt>
			<gx:fovy>35</gx:fovy>
			<range>1049.418224312017</range>
			<altitudeMode>relativeToGround</altitudeMode>
		</LookAt>
		<styleUrl>#__managed_style_02F6919EDE3E1BAEDE4E</styleUrl>
		<Point>
			<extrude>1</extrude>
			<coordinates>-75.94576149689296,6.292750256893192,0</coordinates>
		</Point>
	</Placemark>
	<Placemark id="01CE1125643B4C60F181">
		<name>OLT Fibra</name>
		<LookAt>
			<longitude>-75.957838</longitude>
			<latitude>6.302775999999999</latitude>
			<altitude>0</altitude>
			<heading>0</heading>
			<tilt>0</tilt>
			<gx:fovy>35</gx:fovy>
			<range>1049.395243357381</range>
			<altitudeMode>relativeToGround</altitudeMode>
		</LookAt>
		<styleUrl>#__managed_style_02F6919EDE3E1BAEDE4E</styleUrl>
		<Point>
			<extrude>1</extrude>
			<coordinates>-75.95791213558499,6.302822726244081,0</coordinates>
		</Point>
	</Placemark>
	<Placemark id="0E43D35A083B4C619FF1">
		<name>El Pedrero</name>
		<LookAt>
			<longitude>-75.91013600000001</longitude>
			<latitude>6.300638</latitude>
			<altitude>0</altitude>
			<heading>0</heading>
			<tilt>0</tilt>
			<gx:fovy>35</gx:fovy>
			<range>1049.400083321854</range>
			<altitudeMode>relativeToGround</altitudeMode>
		</LookAt>
		<styleUrl>#__managed_style_02F6919EDE3E1BAEDE4E</styleUrl>
		<Point>
			<extrude>1</extrude>
			<coordinates>-75.91006455279791,6.300370917878372,0</coordinates>
		</Point>
	</Placemark>
	<Placemark id="027B3094A03B4C62A158">
		<name>PTP Puerto Rico</name>
		<LookAt>
			<longitude>-75.92211999999999</longitude>
			<latitude>6.193693000000001</latitude>
			<altitude>0</altitude>
			<heading>0</heading>
			<tilt>0</tilt>
			<gx:fovy>35</gx:fovy>
			<range>1049.640101673245</range>
			<altitudeMode>relativeToGround</altitudeMode>
		</LookAt>
		<styleUrl>#__managed_style_02F6919EDE3E1BAEDE4E</styleUrl>
		<Point>
			<extrude>1</extrude>
			<coordinates>-75.92210655261057,6.194151806470249,0</coordinates>
		</Point>
	</Placemark>
	<Placemark id="00594FCF4A3B4C637C6B">
		<name>PTP La Mina</name>
		<LookAt>
			<longitude>-75.91234</longitude>
			<latitude>6.231317</latitude>
			<altitude>0</altitude>
			<heading>0</heading>
			<tilt>0</tilt>
			<gx:fovy>35</gx:fovy>
			<range>1049.556126984862</range>
			<altitudeMode>relativeToGround</altitudeMode>
		</LookAt>
		<styleUrl>#__managed_style_02F6919EDE3E1BAEDE4E</styleUrl>
		<Point>
			<extrude>1</extrude>
			<coordinates>-75.91234,6.231317000000001,0</coordinates>
		</Point>
	</Placemark>
	<Placemark id="0577E289523B4C641367">
		<name>PTP</name>
		<LookAt>
			<longitude>-75.919498</longitude>
			<latitude>6.216758999999999</latitude>
			<altitude>0</altitude>
			<heading>0</heading>
			<tilt>0</tilt>
			<gx:fovy>35</gx:fovy>
			<range>1049.588679567533</range>
			<altitudeMode>relativeToGround</altitudeMode>
		</LookAt>
		<styleUrl>#__managed_style_02F6919EDE3E1BAEDE4E</styleUrl>
		<Point>
			<extrude>1</extrude>
			<coordinates>-75.91949799999999,6.216759,0</coordinates>
		</Point>
	</Placemark>
	<Placemark id="0686BD8D033B4C64C19F">
		<name>PTP Quebrada Arriba</name>
		<LookAt>
			<longitude>-75.91857</longitude>
			<latitude>6.256171999999999</latitude>
			<altitude>0</altitude>
			<heading>0</heading>
			<tilt>0</tilt>
			<gx:fovy>35</gx:fovy>
			<range>1049.500374851796</range>
			<altitudeMode>relativeToGround</altitudeMode>
		</LookAt>
		<styleUrl>#__managed_style_02F6919EDE3E1BAEDE4E</styleUrl>
		<Point>
			<extrude>1</extrude>
			<coordinates>-75.9180700940004,6.255825002850001,0</coordinates>
		</Point>
	</Placemark>
	<Placemark id="073D8CB37B3B4C672FCC">
		<name>Armenia</name>
		<LookAt>
			<longitude>-75.7883611</longitude>
			<latitude>6.155972200000001</latitude>
			<altitude>0</altitude>
			<heading>0</heading>
			<tilt>0</tilt>
			<gx:fovy>35</gx:fovy>
			<range>1049.72378514102</range>
			<altitudeMode>relativeToGround</altitudeMode>
		</LookAt>
		<styleUrl>#__managed_style_02F6919EDE3E1BAEDE4E</styleUrl>
		<Point>
			<extrude>1</extrude>
			<coordinates>-75.78693782829973,6.156736808904472,0</coordinates>
		</Point>
	</Placemark>
	<Placemark id="030E05BCDF3B4C680131">
		<name>Herradura</name>
		<LookAt>
			<longitude>-75.7883611</longitude>
			<latitude>6.155972200000001</latitude>
			<altitude>0</altitude>
			<heading>0</heading>
			<tilt>0</tilt>
			<gx:fovy>35</gx:fovy>
			<range>1049.72378514102</range>
			<altitudeMode>relativeToGround</altitudeMode>
		</LookAt>
		<styleUrl>#__managed_style_02F6919EDE3E1BAEDE4E</styleUrl>
		<Point>
			<extrude>1</extrude>
			<coordinates>-75.78830058528128,6.155792379510709,0</coordinates>
		</Point>
	</Placemark>
	<Placemark id="0838995BAF3B4C6A323F">
		<name>Titiribí</name>
		<LookAt>
			<longitude>-75.7788889</longitude>
			<latitude>6.071388899999999</latitude>
			<altitude>0</altitude>
			<heading>0</heading>
			<tilt>0</tilt>
			<gx:fovy>35</gx:fovy>
			<range>1049.909586171315</range>
			<altitudeMode>relativeToGround</altitudeMode>
		</LookAt>
		<styleUrl>#__managed_style_02F6919EDE3E1BAEDE4E</styleUrl>
		<Point>
			<extrude>1</extrude>
			<coordinates>-75.7790669469567,6.07160087966374,0</coordinates>
		</Point>
	</Placemark>
	<Placemark id="0CD90FE5113B4C6AD586">
		<name>Pueblito</name>
		<LookAt>
			<longitude>-75.72193899999999</longitude>
			<latitude>6.167779</latitude>
			<altitude>0</altitude>
			<heading>0</heading>
			<tilt>0</tilt>
			<gx:fovy>35</gx:fovy>
			<range>1049.697646408819</range>
			<altitudeMode>relativeToGround</altitudeMode>
		</LookAt>
		<styleUrl>#__managed_style_02F6919EDE3E1BAEDE4E</styleUrl>
		<Point>
			<extrude>1</extrude>
			<coordinates>-75.72175115198741,6.167712645279587,0</coordinates>
		</Point>
	</Placemark>
	<Placemark id="0F304D5A7C3B4C6BDDB1">
		<name>PTP Morrito</name>
		<LookAt>
			<longitude>-75.71861109999999</longitude>
			<latitude>6.206111099999998</latitude>
			<altitude>0</altitude>
			<heading>0</heading>
			<tilt>0</tilt>
			<gx:fovy>35</gx:fovy>
			<range>1049.612441025747</range>
			<altitudeMode>relativeToGround</altitudeMode>
		</LookAt>
		<styleUrl>#__managed_style_02F6919EDE3E1BAEDE4E</styleUrl>
		<Point>
			<extrude>1</extrude>
			<coordinates>-75.71855807511632,6.204783358473512,0</coordinates>
		</Point>
	</Placemark>
	<Placemark id="0AB93DB3C53B4C6C9B54">
		<name>Heliconia</name>
		<LookAt>
			<longitude>-75.745706</longitude>
			<latitude>6.196826999999999</latitude>
			<altitude>0</altitude>
			<heading>0</heading>
			<tilt>0</tilt>
			<gx:fovy>35</gx:fovy>
			<range>1049.633126050648</range>
			<altitudeMode>relativeToGround</altitudeMode>
		</LookAt>
		<styleUrl>#__managed_style_02F6919EDE3E1BAEDE4E</styleUrl>
		<Point>
			<extrude>1</extrude>
			<coordinates>-75.7449476121253,6.196841288324114,0</coordinates>
		</Point>
	</Placemark>
	<Placemark id="011A70FF1B3B4C6D2874">
		<name>OLT Heliconia</name>
		<LookAt>
			<longitude>-75.7330556</longitude>
			<latitude>6.2069444</latitude>
			<altitude>0</altitude>
			<heading>0</heading>
			<tilt>0</tilt>
			<gx:fovy>35</gx:fovy>
			<range>1049.610582924099</range>
			<altitudeMode>relativeToGround</altitudeMode>
		</LookAt>
		<styleUrl>#__managed_style_02F6919EDE3E1BAEDE4E</styleUrl>
		<Point>
			<extrude>1</extrude>
			<coordinates>-75.73307531697679,6.207035217046879,0</coordinates>
		</Point>
	</Placemark>
	<Placemark id="0068EED7B73B4C6DD948">
		<name>Palo Blanco</name>
		<LookAt>
			<longitude>-75.7844444</longitude>
			<latitude>6.2569444</latitude>
			<altitude>0</altitude>
			<heading>0</heading>
			<tilt>0</tilt>
			<gx:fovy>35</gx:fovy>
			<range>1049.498638752521</range>
			<altitudeMode>relativeToGround</altitudeMode>
		</LookAt>
		<styleUrl>#__managed_style_02F6919EDE3E1BAEDE4E</styleUrl>
		<Point>
			<extrude>1</extrude>
			<coordinates>-75.78512002611789,6.25812990766058,0</coordinates>
		</Point>
	</Placemark>
	<Placemark id="0D9A1C73F63B4C6EF356">
		<name>OLT Sevilla</name>
		<LookAt>
			<longitude>-75.78483840000001</longitude>
			<latitude>6.2930139</latitude>
			<altitude>0</altitude>
			<heading>0</heading>
			<tilt>0</tilt>
			<gx:fovy>35</gx:fovy>
			<range>1049.417329337121</range>
			<altitudeMode>relativeToGround</altitudeMode>
		</LookAt>
		<styleUrl>#__managed_style_02F6919EDE3E1BAEDE4E</styleUrl>
		<Point>
			<extrude>1</extrude>
			<coordinates>-75.78466070763456,6.29227244194796,0</coordinates>
		</Point>
	</Placemark>
	<Placemark id="0A834A269B3B4C6FBF38">
		<name>Coles</name>
		<LookAt>
			<longitude>-75.7421748</longitude>
			<latitude>6.358996100000001</latitude>
			<altitude>0</altitude>
			<heading>0</heading>
			<tilt>0</tilt>
			<gx:fovy>35</gx:fovy>
			<range>1049.267387980184</range>
			<altitudeMode>relativeToGround</altitudeMode>
		</LookAt>
		<styleUrl>#__managed_style_02F6919EDE3E1BAEDE4E</styleUrl>
		<Point>
			<extrude>1</extrude>
			<coordinates>-75.7421748,6.3589961,0</coordinates>
		</Point>
	</Placemark>
	<Placemark id="04CCD310383B4C71062B">
		<name>Brasil</name>
		<LookAt>
			<longitude>-75.7287887</longitude>
			<latitude>6.343187800000001</latitude>
			<altitude>0</altitude>
			<heading>0</heading>
			<tilt>0</tilt>
			<gx:fovy>35</gx:fovy>
			<range>1049.303453085282</range>
			<altitudeMode>relativeToGround</altitudeMode>
		</LookAt>
		<styleUrl>#__managed_style_02F6919EDE3E1BAEDE4E</styleUrl>
		<Point>
			<extrude>1</extrude>
			<coordinates>-75.7287887,6.3431878,0</coordinates>
		</Point>
	</Placemark>
	<Placemark id="0F22305A943B4C71860C">
		<name>Sevilla</name>
		<LookAt>
			<longitude>-75.78250000000001</longitude>
			<latitude>6.2891667</latitude>
			<altitude>0</altitude>
			<heading>0</heading>
			<tilt>0</tilt>
			<gx:fovy>35</gx:fovy>
			<range>1049.426023980856</range>
			<altitudeMode>relativeToGround</altitudeMode>
		</LookAt>
		<styleUrl>#__managed_style_02F6919EDE3E1BAEDE4E</styleUrl>
		<Point>
			<extrude>1</extrude>
			<coordinates>-75.78277205859588,6.289333289196693,0</coordinates>
		</Point>
	</Placemark>
	<Placemark id="04065B549F3B4C721D38">
		<name>Ebéjico</name>
		<LookAt>
			<longitude>-75.7661667</longitude>
			<latitude>6.3262778</latitude>
			<altitude>0</altitude>
			<heading>0</heading>
			<tilt>0</tilt>
			<gx:fovy>35</gx:fovy>
			<range>1049.341932907539</range>
			<altitudeMode>relativeToGround</altitudeMode>
		</LookAt>
		<styleUrl>#__managed_style_02F6919EDE3E1BAEDE4E</styleUrl>
		<Point>
			<extrude>1</extrude>
			<coordinates>-75.76790324888648,6.325757572534066,0</coordinates>
		</Point>
	</Placemark>
	<Placemark id="02A3D96E6B3B4C732DC8">
		<name>Campo Alegre</name>
		<LookAt>
			<longitude>-75.76084879999999</longitude>
			<latitude>6.333175099999999</latitude>
			<altitude>0</altitude>
			<heading>0</heading>
			<tilt>0</tilt>
			<gx:fovy>35</gx:fovy>
			<range>1049.326249966669</range>
			<altitudeMode>relativeToGround</altitudeMode>
		</LookAt>
		<styleUrl>#__managed_style_02F6919EDE3E1BAEDE4E</styleUrl>
		<Point>
			<extrude>1</extrude>
			<coordinates>-75.76084879999999,6.3331751,0</coordinates>
		</Point>
	</Placemark>
	<Placemark id="01F2EE784A3B4CD526C8">
		<name>Guayabal</name>
		<LookAt>
			<longitude>-75.71611110000001</longitude>
			<latitude>6.503611099999999</latitude>
			<altitude>0</altitude>
			<heading>0</heading>
			<tilt>0</tilt>
			<gx:fovy>35</gx:fovy>
			<range>1048.933324758982</range>
			<altitudeMode>relativeToGround</altitudeMode>
		</LookAt>
		<styleUrl>#__managed_style_0C52047D3B3E1BAEDE51</styleUrl>
		<Point>
			<extrude>1</extrude>
			<coordinates>-75.71611109999999,6.5036111,0</coordinates>
		</Point>
	</Placemark>
	<Placemark id="00633AB0973B4CD5C070">
		<name>Cordoba</name>
		<LookAt>
			<longitude>-75.765</longitude>
			<latitude>6.5205556</latitude>
			<altitude>0</altitude>
			<heading>0</heading>
			<tilt>0</tilt>
			<gx:fovy>35</gx:fovy>
			<range>1048.893694461093</range>
			<altitudeMode>relativeToGround</altitudeMode>
		</LookAt>
		<styleUrl>#__managed_style_0C52047D3B3E1BAEDE51</styleUrl>
		<Point>
			<extrude>1</extrude>
			<coordinates>-75.76503585989808,6.520087941501794,0</coordinates>
		</Point>
	</Placemark>
	<Placemark id="052F061E973B4CD6A646">
		<name>Guasimo</name>
		<LookAt>
			<longitude>-75.73638889999999</longitude>
			<latitude>6.5036111</latitude>
			<altitude>0</altitude>
			<heading>0</heading>
			<tilt>0</tilt>
			<gx:fovy>35</gx:fovy>
			<range>1048.933324758982</range>
			<altitudeMode>relativeToGround</altitudeMode>
		</LookAt>
		<styleUrl>#__managed_style_0C52047D3B3E1BAEDE51</styleUrl>
		<Point>
			<extrude>1</extrude>
			<coordinates>-75.73638889999999,6.5036111,0</coordinates>
		</Point>
	</Placemark>
	<Placemark id="09FF430EF23B4CD715FE">
		<name>Cruces</name>
		<LookAt>
			<longitude>-75.7341667</longitude>
			<latitude>6.4963889</latitude>
			<altitude>0</altitude>
			<heading>0</heading>
			<tilt>0</tilt>
			<gx:fovy>35</gx:fovy>
			<range>1048.950185132534</range>
			<altitudeMode>relativeToGround</altitudeMode>
		</LookAt>
		<styleUrl>#__managed_style_0C52047D3B3E1BAEDE51</styleUrl>
		<Point>
			<extrude>1</extrude>
			<coordinates>-75.7341667,6.496388899999999,0</coordinates>
		</Point>
	</Placemark>
	<Placemark id="0407E6CDC43B4CD76F84">
		<name>Gaitero</name>
		<LookAt>
			<longitude>-75.7783333</longitude>
			<latitude>6.463055600000001</latitude>
			<altitude>0</altitude>
			<heading>0</heading>
			<tilt>0</tilt>
			<gx:fovy>35</gx:fovy>
			<range>1049.027761340991</range>
			<altitudeMode>relativeToGround</altitudeMode>
		</LookAt>
		<styleUrl>#__managed_style_0C52047D3B3E1BAEDE51</styleUrl>
		<Point>
			<extrude>1</extrude>
			<coordinates>-75.7783333,6.4630556,0</coordinates>
		</Point>
	</Placemark>
	<Placemark id="0632656E303B4CD80C5F">
		<name>PTP Peña Alta</name>
		<LookAt>
			<longitude>-75.7541667</longitude>
			<latitude>6.4633333</latitude>
			<altitude>0</altitude>
			<heading>0</heading>
			<tilt>0</tilt>
			<gx:fovy>35</gx:fovy>
			<range>1049.02711668992</range>
			<altitudeMode>relativeToGround</altitudeMode>
		</LookAt>
		<styleUrl>#__managed_style_0C52047D3B3E1BAEDE51</styleUrl>
		<Point>
			<extrude>1</extrude>
			<coordinates>-75.7544604349292,6.462948187371575,0</coordinates>
		</Point>
	</Placemark>
	<Placemark id="0AE319CD833B4CD8C044">
		<name>OLT Sopetran</name>
		<LookAt>
			<longitude>-75.7455556</longitude>
			<latitude>6.501666699999999</latitude>
			<altitude>0</altitude>
			<heading>0</heading>
			<tilt>0</tilt>
			<gx:fovy>35</gx:fovy>
			<range>1048.937865830406</range>
			<altitudeMode>relativeToGround</altitudeMode>
		</LookAt>
		<styleUrl>#__managed_style_0C52047D3B3E1BAEDE51</styleUrl>
		<Point>
			<extrude>1</extrude>
			<coordinates>-75.74558210971257,6.501844130324161,0</coordinates>
		</Point>
	</Placemark>
	<Placemark id="0E233BDEB33B4CD9821C">
		<name>El Mestizp</name>
		<LookAt>
			<longitude>-75.7019444</longitude>
			<latitude>6.4872222</latitude>
			<altitude>0</altitude>
			<heading>0</heading>
			<tilt>0</tilt>
			<gx:fovy>35</gx:fovy>
			<range>1048.971558192377</range>
			<altitudeMode>relativeToGround</altitudeMode>
		</LookAt>
		<styleUrl>#__managed_style_0C52047D3B3E1BAEDE51</styleUrl>
		<Point>
			<extrude>1</extrude>
			<coordinates>-75.7019444,6.4872222,0</coordinates>
		</Point>
	</Placemark>
	<Placemark id="0C26BCBDFB3B4CD9EC1F">
		<name>Loma Hermosa 1</name>
		<LookAt>
			<longitude>-75.74194439999999</longitude>
			<latitude>6.4313889</latitude>
			<altitude>0</altitude>
			<heading>0</heading>
			<tilt>0</tilt>
			<gx:fovy>35</gx:fovy>
			<range>1049.101091818821</range>
			<altitudeMode>relativeToGround</altitudeMode>
		</LookAt>
		<styleUrl>#__managed_style_0C52047D3B3E1BAEDE51</styleUrl>
		<Point>
			<extrude>1</extrude>
			<coordinates>-75.74194439999999,6.431388900000001,0</coordinates>
		</Point>
	</Placemark>
	<Placemark id="05AD742F173B4CDAA4F8">
		<name>Loma Hermosa 2</name>
		<LookAt>
			<longitude>-75.74055559999999</longitude>
			<latitude>6.431666700000001</latitude>
			<altitude>0</altitude>
			<heading>0</heading>
			<tilt>0</tilt>
			<gx:fovy>35</gx:fovy>
			<range>1049.100450073386</range>
			<altitudeMode>relativeToGround</altitudeMode>
		</LookAt>
		<styleUrl>#__managed_style_0C52047D3B3E1BAEDE51</styleUrl>
		<Point>
			<extrude>1</extrude>
			<coordinates>-75.74238039833,6.431456016519729,0</coordinates>
		</Point>
	</Placemark>
	<Placemark id="0193557DC33B4CDB4220">
		<name>El Tigre</name>
		<LookAt>
			<longitude>-75.71611110000001</longitude>
			<latitude>6.432222199999999</latitude>
			<altitude>0</altitude>
			<heading>0</heading>
			<tilt>0</tilt>
			<gx:fovy>35</gx:fovy>
			<range>1049.099166730967</range>
			<altitudeMode>relativeToGround</altitudeMode>
		</LookAt>
		<styleUrl>#__managed_style_0C52047D3B3E1BAEDE51</styleUrl>
		<Point>
			<extrude>1</extrude>
			<coordinates>-75.71637569226397,6.432698198581583,0</coordinates>
		</Point>
	</Placemark>
	<Placemark id="06029AF0803B4CDBC2E6">
		<name>OLT San Jeronimo</name>
		<LookAt>
			<longitude>-75.72861109999999</longitude>
			<latitude>6.4425</latitude>
			<altitude>0</altitude>
			<heading>0</heading>
			<tilt>0</tilt>
			<gx:fovy>35</gx:fovy>
			<range>1049.075402612473</range>
			<altitudeMode>relativeToGround</altitudeMode>
		</LookAt>
		<styleUrl>#__managed_style_0C52047D3B3E1BAEDE51</styleUrl>
		<Point>
			<extrude>1</extrude>
			<coordinates>-75.72865098209981,6.442631835643565,0</coordinates>
		</Point>
	</Placemark>
	<Placemark id="07A445E9CF3B4CDC85A8">
		<name>La Potrera</name>
		<LookAt>
			<longitude>-75.6947222</longitude>
			<latitude>6.348333299999999</latitude>
			<altitude>0</altitude>
			<heading>0</heading>
			<tilt>0</tilt>
			<gx:fovy>35</gx:fovy>
			<range>1049.291723913434</range>
			<altitudeMode>relativeToGround</altitudeMode>
		</LookAt>
		<styleUrl>#__managed_style_0C52047D3B3E1BAEDE51</styleUrl>
		<Point>
			<extrude>1</extrude>
			<coordinates>-75.6947222,6.3483333,0</coordinates>
		</Point>
	</Placemark>
	<Placemark id="07A88201D53B4CDD01E9">
		<name>Urquita</name>
		<LookAt>
			<longitude>-75.6980556</longitude>
			<latitude>6.3652778</latitude>
			<altitude>0</altitude>
			<heading>0</heading>
			<tilt>0</tilt>
			<gx:fovy>35</gx:fovy>
			<range>1049.25303213541</range>
			<altitudeMode>relativeToGround</altitudeMode>
		</LookAt>
		<styleUrl>#__managed_style_0C52047D3B3E1BAEDE51</styleUrl>
		<Point>
			<extrude>1</extrude>
			<coordinates>-75.6980556,6.365277799999999,0</coordinates>
		</Point>
	</Placemark>
	<Placemark id="08259603893B4CDD5B97">
		<name>San Juan</name>
		<LookAt>
			<longitude>-75.7330556</longitude>
			<latitude>6.3941667</latitude>
			<altitude>0</altitude>
			<heading>0</heading>
			<tilt>0</tilt>
			<gx:fovy>35</gx:fovy>
			<range>1049.186829816323</range>
			<altitudeMode>relativeToGround</altitudeMode>
		</LookAt>
		<styleUrl>#__managed_style_0C52047D3B3E1BAEDE51</styleUrl>
		<Point>
			<extrude>1</extrude>
			<coordinates>-75.7330556,6.3941667,0</coordinates>
		</Point>
	</Placemark>
	<Placemark id="0FD5D70D6B3B4CDDD190">
		<name>Blanquizal</name>
		<LookAt>
			<longitude>-75.74249999999999</longitude>
			<latitude>6.3394444</latitude>
			<altitude>0</altitude>
			<heading>0</heading>
			<tilt>0</tilt>
			<gx:fovy>35</gx:fovy>
			<range>1049.311980232619</range>
			<altitudeMode>relativeToGround</altitudeMode>
		</LookAt>
		<styleUrl>#__managed_style_0C52047D3B3E1BAEDE51</styleUrl>
		<Point>
			<extrude>1</extrude>
			<coordinates>-75.74249999999999,6.3394444,0</coordinates>
		</Point>
	</Placemark>
	<Placemark id="0A8C76E35B3B4CDE8443">
		<name>Puerto Nuevo</name>
		<LookAt>
			<longitude>-75.71861109999999</longitude>
			<latitude>6.394444399999999</latitude>
			<altitude>0</altitude>
			<heading>0</heading>
			<tilt>0</tilt>
			<gx:fovy>35</gx:fovy>
			<range>1049.186191989246</range>
			<altitudeMode>relativeToGround</altitudeMode>
		</LookAt>
		<styleUrl>#__managed_style_0C52047D3B3E1BAEDE51</styleUrl>
		<Point>
			<extrude>1</extrude>
			<coordinates>-75.71861109999999,6.3944444,0</coordinates>
		</Point>
	</Placemark>
	<Placemark id="0326DDFE6F3B4CDF0399">
		<name>Piedra Negra</name>
		<LookAt>
			<longitude>-75.7330556</longitude>
			<latitude>6.3841667</latitude>
			<altitude>0</altitude>
			<heading>0</heading>
			<tilt>0</tilt>
			<gx:fovy>35</gx:fovy>
			<range>1049.209779689207</range>
			<altitudeMode>relativeToGround</altitudeMode>
		</LookAt>
		<styleUrl>#__managed_style_0C52047D3B3E1BAEDE51</styleUrl>
		<Point>
			<extrude>1</extrude>
			<coordinates>-75.73414649125046,6.385674899705352,0</coordinates>
		</Point>
	</Placemark>
	<Placemark id="0A56A0DBA93DDA6E348F">
		<name>PTP URRAEÑA</name>
		<LookAt>
			<longitude>-76.019447</longitude>
			<latitude>6.216732999999999</latitude>
			<altitude>0</altitude>
			<heading>0</heading>
			<tilt>0</tilt>
			<gx:fovy>35</gx:fovy>
			<range>1049.588737637457</range>
			<altitudeMode>relativeToGround</altitudeMode>
		</LookAt>
		<styleUrl>#__managed_style_01F313687E3E1BAEDE5C</styleUrl>
		<Point>
			<extrude>1</extrude>
			<coordinates>-76.019447,6.216733,0</coordinates>
		</Point>
	</Placemark>
</Document>
</kml>
